[{"OBJECT_NAME":"SHIKONGXING 01","OBJECT_ID":"2025-214A","EPOCH":"2026-03-09T23:27:22.281408","MEAN_MOTION":14.92356791,"ECCENTRICITY":0.00132612,"INCLINATION":49.9863,"RA_OF_ASC_NODE":40.3934,"ARG_OF_PERICENTER":224.4244,"MEAN_ANOMALY":135.5635,"EPHEMERIS_TYPE":0,"CLASSIFICATION_TYPE":"U","NORAD_CAT_ID":65712,"ELEMENT_SET_NO":999,"REV_AT_EPOCH":2488,"BSTAR":0.00036752052,"MEAN_MOTION_DOT":3.562e-5,"MEAN_MOTION_DDOT":0},{"OBJECT_NAME":"FENGYUN 1C DEB","OBJECT_ID":"1999-025BZE","EPOCH":"2026-03-09T10:10:19.409664","MEAN_MOTION":14.66101352,"ECCENTRICITY":0.01121502,"INCLINATION":98.9608,"RA_OF_ASC_NODE":234.6887,"ARG_OF_PERICENTER":171.648,"MEAN_ANOMALY":188.6623,"EPHEMERIS_TYPE":0,"CLASSIFICATION_TYPE":"U","NORAD_CAT_ID":31563,"ELEMENT_SET_NO":999,"REV_AT_EPOCH":99814,"BSTAR":0.0011242552,"MEAN_MOTION_DOT":6.722e-5,"MEAN_MOTION_DDOT":0}]
